{
  "type": "FeatureCollection",
  "features": [
    {
      "type": "Feature",
      "properties": {
        "norad_id": 66870,
        "name": "STARLINK-36114",
        "group": "last-30-days",
        "lat": 21.70525310094553,
        "lon": 82.58224576566087,
        "alt_km": 378.26950409654455,
        "timestamp": "2025-12-23T09:49:05.798292+00:00",
        "meta_object_name": "STARLINK-36114",
        "meta_object_id": "2025-281Y",
        "meta_epoch": "2025-12-22T22:00:03.000096",
        "meta_mean_motion": 15.64392809,
        "meta_eccentricity": 0.00011392,
        "meta_inclination": 43.0006,
        "meta_ra_of_asc_node": 60.2308,
        "meta_arg_of_pericenter": 280.8014,
        "meta_mean_anomaly": 217.6312,
        "meta_ephemeris_type": 0,
        "meta_classification_type": "U",
        "meta_norad_cat_id": 66870,
        "meta_element_set_no": 999,
        "meta_rev_at_epoch": 292,
        "meta_bstar": -0.02341004,
        "meta_mean_motion_dot": -0.02025985,
        "meta_mean_motion_ddot": 0,
        "tle_line1": "1 66870U 25281Y   25356.91670139 -.02025985  00000+0 -23410-1 0  9995",
        "tle_line2": "2 66870  43.0006  60.2308 0001139 280.8014 217.6312 15.64392809  2920"
      },
      "geometry": {
        "type": "Point",
        "coordinates": [
          82.58224576566087,
          21.70525310094553
        ]
      }
    },
    {
      "type": "Feature",
      "properties": {
        "norad_id": 66871,
        "name": "STARLINK-36095",
        "group": "last-30-days",
        "lat": 22.879093376567997,
        "lon": 84.21575210520535,
        "alt_km": 378.11676645722855,
        "timestamp": "2025-12-23T09:49:05.798304+00:00",
        "meta_object_name": "STARLINK-36095",
        "meta_object_id": "2025-281Z",
        "meta_epoch": "2025-12-22T22:00:03.000096",
        "meta_mean_motion": 15.64393024,
        "meta_eccentricity": 0.00010519,
        "meta_inclination": 43.0005,
        "meta_ra_of_asc_node": 60.2255,
        "meta_arg_of_pericenter": 279.398,
        "meta_mean_anomaly": 220.9513,
        "meta_ephemeris_type": 0,
        "meta_classification_type": "U",
        "meta_norad_cat_id": 66871,
        "meta_element_set_no": 999,
        "meta_rev_at_epoch": 306,
        "meta_bstar": -0.023408782,
        "meta_mean_motion_dot": -0.02025839,
        "meta_mean_motion_ddot": 0,
        "tle_line1": "1 66871U 25281Z   25356.91670139 -.02025839  00000+0 -23409-1 0  9992",
        "tle_line2": "2 66871  43.0005  60.2255 0001051 279.3980 220.9513 15.64393024  3065"
      },
      "geometry": {
        "type": "Point",
        "coordinates": [
          84.21575210520535,
          22.879093376567997
        ]
      }
    },
    {
      "type": "Feature",
      "properties": {
        "norad_id": 66872,
        "name": "STARLINK-36082",
        "group": "last-30-days",
        "lat": 24.03673364519906,
        "lon": 85.87954742985738,
        "alt_km": 377.9525492656121,
        "timestamp": "2025-12-23T09:49:05.798317+00:00",
        "meta_object_name": "STARLINK-36082",
        "meta_object_id": "2025-281AA",
        "meta_epoch": "2025-12-22T22:00:03.000096",
        "meta_mean_motion": 15.64395062,
        "meta_eccentricity": 0.00011257,
        "meta_inclination": 43.0002,
        "meta_ra_of_asc_node": 60.2206,
        "meta_arg_of_pericenter": 281.1931,
        "meta_mean_anomaly": 221.0741,
        "meta_ephemeris_type": 0,
        "meta_classification_type": "U",
        "meta_norad_cat_id": 66872,
        "meta_element_set_no": 999,
        "meta_rev_at_epoch": 292,
        "meta_bstar": -0.023469163,
        "meta_mean_motion_dot": -0.02030615,
        "meta_mean_motion_ddot": 0,
        "tle_line1": "1 66872U 25281AA  25356.91670139 -.02030615  00000+0 -23469-1 0  9997",
        "tle_line2": "2 66872  43.0002  60.2206 0001125 281.1931 221.0741 15.64395062  2921"
      },
      "geometry": {
        "type": "Point",
        "coordinates": [
          85.87954742985738,
          24.03673364519906
        ]
      }
    },
    {
      "type": "Feature",
      "properties": {
        "norad_id": 66873,
        "name": "STARLINK-36128",
        "group": "last-30-days",
        "lat": 27.393458947386094,
        "lon": 91.05628371474558,
        "alt_km": 377.4564769717563,
        "timestamp": "2025-12-23T09:49:05.798329+00:00",
        "meta_object_name": "STARLINK-36128",
        "meta_object_id": "2025-281AB",
        "meta_epoch": "2025-12-22T22:00:03.000096",
        "meta_mean_motion": 15.64392503,
        "meta_eccentricity": 0.00011261,
        "meta_inclination": 43.0003,
        "meta_ra_of_asc_node": 60.2056,
        "meta_arg_of_pericenter": 282.6505,
        "meta_mean_anomaly": 225.3666,
        "meta_ephemeris_type": 0,
        "meta_classification_type": "U",
        "meta_norad_cat_id": 66873,
        "meta_element_set_no": 999,
        "meta_rev_at_epoch": 306,
        "meta_bstar": -0.023402898,
        "meta_mean_motion_dot": -0.02025412,
        "meta_mean_motion_ddot": 0,
        "tle_line1": "1 66873U 25281AB  25356.91670139 -.02025412  00000+0 -23403-1 0  9995",
        "tle_line2": "2 66873  43.0003  60.2056 0001126 282.6505 225.3666 15.64392503  3066"
      },
      "geometry": {
        "type": "Point",
        "coordinates": [
          91.05628371474558,
          27.393458947386094
        ]
      }
    },
    {
      "type": "Feature",
      "properties": {
        "norad_id": 66874,
        "name": "STARLINK-36129",
        "group": "last-30-days",
        "lat": 25.176025621618653,
        "lon": 87.57311766477068,
        "alt_km": 377.7412852041134,
        "timestamp": "2025-12-23T09:49:05.798339+00:00",
        "meta_object_name": "STARLINK-36129",
        "meta_object_id": "2025-281AC",
        "meta_epoch": "2025-12-22T22:00:03.000096",
        "meta_mean_motion": 15.64392283,
        "meta_eccentricity": 0.00011428,
        "meta_inclination": 43.0002,
        "meta_ra_of_asc_node": 60.2156,
        "meta_arg_of_pericenter": 283.5235,
        "meta_mean_anomaly": 220.6591,
        "meta_ephemeris_type": 0,
        "meta_classification_type": "U",
        "meta_norad_cat_id": 66874,
        "meta_element_set_no": 999,
        "meta_rev_at_epoch": 306,
        "meta_bstar": -0.02339169,
        "meta_mean_motion_dot": -0.0202456,
        "meta_mean_motion_ddot": 0,
        "tle_line1": "1 66874U 25281AC  25356.91670139 -.02024560  00000+0 -23392-1 0  9996",
        "tle_line2": "2 66874  43.0002  60.2156 0001142 283.5235 220.6591 15.64392283  3065"
      },
      "geometry": {
        "type": "Point",
        "coordinates": [
          87.57311766477068,
          25.176025621618653
        ]
      }
    },
    {
      "type": "Feature",
      "properties": {
        "norad_id": 66875,
        "name": "STARLINK-36053",
        "group": "last-30-days",
        "lat": 28.46867197338179,
        "lon": 92.84888944031343,
        "alt_km": 377.33205877961063,
        "timestamp": "2025-12-23T09:49:05.798349+00:00",
        "meta_object_name": "STARLINK-36053",
        "meta_object_id": "2025-281AD",
        "meta_epoch": "2025-12-22T22:00:03.000096",
        "meta_mean_motion": 15.64393309,
        "meta_eccentricity": 0.00011042,
        "meta_inclination": 43.0003,
        "meta_ra_of_asc_node": 60.2004,
        "meta_arg_of_pericenter": 281.6656,
        "meta_mean_anomaly": 228.2704,
        "meta_ephemeris_type": 0,
        "meta_classification_type": "U",
        "meta_norad_cat_id": 66875,
        "meta_element_set_no": 999,
        "meta_rev_at_epoch": 306,
        "meta_bstar": -0.02344791,
        "meta_mean_motion_dot": -0.02028863,
        "meta_mean_motion_ddot": 0,
        "tle_line1": "1 66875U 25281AD  25356.91670139 -.02028863  00000+0 -23448-1 0  9999",
        "tle_line2": "2 66875  43.0003  60.2004 0001104 281.6656 228.2704 15.64393309  3063"
      },
      "geometry": {
        "type": "Point",
        "coordinates": [
          92.84888944031343,
          28.46867197338179
        ]
      }
    },
    {
      "type": "Feature",
      "properties": {
        "norad_id": 66876,
        "name": "STARLINK-35702",
        "group": "last-30-days",
        "lat": 26.29518046636063,
        "lon": 89.29797615363756,
        "alt_km": 377.6122950506888,
        "timestamp": "2025-12-23T09:49:05.798359+00:00",
        "meta_object_name": "STARLINK-35702",
        "meta_object_id": "2025-281AE",
        "meta_epoch": "2025-12-22T22:00:03.000096",
        "meta_mean_motion": 15.64394629,
        "meta_eccentricity": 0.00011311,
        "meta_inclination": 43.0001,
        "meta_ra_of_asc_node": 60.2106,
        "meta_arg_of_pericenter": 282.7815,
        "meta_mean_anomaly": 223.3191,
        "meta_ephemeris_type": 0,
        "meta_classification_type": "U",
        "meta_norad_cat_id": 66876,
        "meta_element_set_no": 999,
        "meta_rev_at_epoch": 306,
        "meta_bstar": -0.023454415,
        "meta_mean_motion_dot": -0.02029471,
        "meta_mean_motion_ddot": 0,
        "tle_line1": "1 66876U 25281AE  25356.91670139 -.02029471  00000+0 -23454-1 0  9993",
        "tle_line2": "2 66876  43.0001  60.2106 0001131 282.7815 223.3191 15.64394629  3066"
      },
      "geometry": {
        "type": "Point",
        "coordinates": [
          89.29797615363756,
          26.29518046636063
        ]
      }
    }
  ]
}